{"fetched_at":"2026-03-29T02:12:04Z","count":15717,"tles":[{"name":"STARLINK-31857","line1":"1 59843U 24097J   26087.60406145 -.00004501  00000+0 -15401-3 0  9995","line2":"2 59843  43.0030 167.1807 0000779 278.1879  81.8885 15.27604134104811","category":"Starlink"}]}