{
  "norad_id": 59843,
  "name": "STARLINK-31857",
  "history": [
    {
      "epoch": "2026-03-28T14:29:50.909280",
      "apogee_km": 483.5119979917372,
      "perigee_km": 482.44166423408296,
      "latitude_deg": 42.97885845871406,
      "longitude_deg": -137.71010079979897,
      "semi_major_axis_km": 6861.11383111291,
      "eccentricity": 7.8e-05,
      "inclination_deg": 43.003,
      "raan_deg": 167.1807,
      "arg_perigee_deg": 278.1879,
      "mean_anomaly_deg": 81.8885,
      "mean_motion_rev_day": 15.27604134
    }
  ]
}